BEIDOU-2 IGSO-5         
1 37948U 11073A   26157.29392661 -.00000158  00000+0  00000+0 0  9995
2 37948  47.6993 271.6824 0113507 221.7051 318.8875  1.00275595 53020
LUCH-5A                 
1 37951U 11074B   26157.59434360 -.00000037  00000+0  00000+0 0  9992
2 37951   8.7265  73.9638 0002401  12.3562 189.6634  1.00269862 52948
BEIDOU-2 G5             
1 38091U 12008A   26157.50171844  .00000071  00000+0  00000+0 0  9999
2 38091   3.5468  69.7625 0009528 276.2471 148.2245  1.00269803 52267
BEIDOU-2 M3             
1 38250U 12018A   26155.83864758 -.00000057  00000+0  00000+0 0  9999
2 38250  55.7694 305.2913 0019927 274.9392  84.8190  1.86230159 95710
BEIDOU-2 M4             
1 38251U 12018B   26155.77093162 -.00000057  00000+0  00000+0 0  9996
2 38251  55.6694 304.5088 0011176 276.7033  83.1552  1.86229610 95719
SES-5                   
1 38652U 12036A   26157.56229862  .00000047  00000+0  00000+0 0  9996
2 38652   0.0514 309.0983 0002160 123.0608  30.2291  1.00271236 44352
BEIDOU-2 M6             
1 38775U 12050B   26157.09159825 -.00000038  00000+0  00000+0 0  9998
2 38775  56.5348  63.2614 0013908 355.5255   4.4903  1.86231002 93102
GSAT-10                 
1 38779U 12051B   26157.59504094 -.00000152  00000+0  00000+0 0  9997
2 38779   0.0185 261.7493 0008016 186.9244 103.5838  1.00271940 49994
NAVSTAR 67 (USA 239)    
1 38833U 12053A   26157.34775955  .00000087  00000+0  00000+0 0  9995
2 38833  53.5839 144.0434 0179696  65.6043 296.2529  2.00567344 99220
GSAT0103 (GALILEO-FM3)  
1 38857U 12055A   26156.15727767  .00000018  00000+0  00000+0 0  9993
2 38857  55.7989 101.8756 0005166 302.6849  57.2312  1.70473498 84807
BEIDOU-2 G6             
1 38953U 12059A   26156.86496485 -.00000163  00000+0  00000+0 0  9994
2 38953   4.3922  73.6449 0010153 324.2775 251.7272  1.00275005 49798
LUCH-5B                 
1 38977U 12061A   26156.98739819 -.00000127  00000+0  00000+0 0  9997
2 38977  10.4571  49.9907 0001666 137.7014  45.8723  1.00274220 49497
COSMOS 2485 [GLONASS-M] 
1 39155U 13019A   26157.11703028 -.00000007  00000+0  00000+0 0  9996
2 39155  65.4139  73.9758 0023482 234.9271 124.8751  2.13103501102040
NAVSTAR 68 (USA 242)    
1 39166U 13023A   26156.21726920 -.00000027  00000+0  00000+0 0  9991
2 39166  54.5137 269.4614 0141622  50.9838 310.2894  2.00563607 95643
IRNSS-1A                
1 39199U 13034A   26142.85947303  .00000059  00000+0  00000+0 0  9998
2 39199  35.6649  64.2334 0016618 185.3754 355.4646  1.00280263 47111
NAVSTAR 69 (USA 248)    
1 39533U 14008A   26157.21594932  .00000088  00000+0  00000+0 0  9996
2 39533  53.6529 149.7672 0084234 231.0946 128.1524  2.00559138 89460
ASTRA 5B                
1 39617U 14011B   26157.56602530  .00000150  00000+0  00000+0 0  9995
2 39617   0.0595 315.2784 0002223 107.5370  59.4508  1.00269454 44560
COSMOS 2492 [GLONASS-M] 
1 39620U 14012A   26156.60665834 -.00000031  00000+0  00000+0 0  9999
2 39620  65.3049 314.3293 0010560 326.8783  33.0498  2.13103514 94991
IRNSS-1B                
1 39635U 14017A   26139.86086405  .00000103  00000+0  00000+0 0  9999
2 39635  28.9733 240.8911 0024226 185.2284 176.5740  1.00280229 44519
LUCH-5V                 
1 39727U 14023A   26157.20739465 -.00000255  00000+0  00000+0 0  9996
2 39727   5.1060  69.8596 0002802  28.7178 325.4279  1.00268523 44243
NAVSTAR 70 (USA 251)    
1 39741U 14026A   26156.99278338 -.00000062  00000+0  00000+0 0  9993
2 39741  56.5039 331.9533 0038266 326.7338  33.0317  2.00561927 88317
COSMOS 2500 [GLONASS-M] 
1 40001U 14032A   26156.30730628 -.00000032  00000+0  00000+0 0  9998
2 40001  65.2399 314.0875 0006921 182.6987 177.2913  2.13106228 93207
NAVSTAR 71 (USA 256)    
1 40105U 14045A   26157.08442537  .00000007  00000+0  00000+0 0  9993
2 40105  55.3463  88.9073 0032861 118.4040 241.9212  2.00557729 85855
GSAT0201 (GALILEO 5)    
1 40128U 14050A   26153.86432925 -.00000050  00000+0  00000+0 0  9995
2 40128  48.8915 274.0236 1672406 178.8372 181.6513  1.85520153 78053
GSAT0202 (GALILEO 6)    
1 40129U 14050B   26156.81483642 -.00000047  00000+0  00000+0 0  9992
2 40129  48.9049 272.9882 1674073 179.6779 180.4916  1.85520656 80278
IRNSS-1C                
1 40269U 14061A   26157.36365778 -.00000149  00000+0  00000+0 0  9992
2 40269   6.4911  89.1329 0022596   1.2266  18.3662  1.00271038 42584
NAVSTAR 72 (USA 258)    
1 40294U 14068A   26157.45380236 -.00000067  00000+0  00000+0 0  9992
2 40294  56.9803  31.3683 0066799  70.1816 290.5925  2.00575579 84998
COSMOS 2501 [GLONASS-K] 
1 40315U 14075A   26156.09998656  .00000070  00000+0  00000+0 0  9997
2 40315  63.6155 190.7905 0022434 212.0821 147.8495  2.13101471 89592
NAVSTAR 73 (USA 260)    
1 40534U 15013A   26156.09596329  .00000046  00000+0  00000+0 0  9997
2 40534  53.1687 204.6778 0109301  40.1042 320.7783  2.00552074 81584
GSAT0203 (GALILEO 7)    
1 40544U 15017A   26156.48117556 -.00000068  00000+0  00000+0 0  9991
2 40544  56.7910 341.9146 0002094 282.9852  77.0035  1.70476258 69003
GSAT0204 (GALILEO 8)    
1 40545U 15017B   26156.15035755 -.00000069  00000+0  00000+0 0  9997
2 40545  56.7982 341.9422 0001822 253.1460 106.8459  1.70475724 32045
